SAUDISAT 5A             
1 43831U 18102A   26158.53818039  .00006145  00000+0  22766-3 0  9991
2 43831  97.3069 220.3055 0010293 159.3548 200.8110 15.27948528414206
SAUDISAT 5B             
1 43833U 18102C   26158.49318362  .00005668  00000+0  20854-3 0  9997
2 43833  97.3176 223.3136 0010902 162.2708 197.8915 15.28209766414313
GAOFEN-10R              
1 44622U 19066A   26158.50564005  .00001372  00000+0  17538-3 0  9996
2 44622  98.0498 112.0147 0005990 154.6299 205.5209 14.83040213360944
CARTOSAT-3              
1 44804U 19081A   26158.47530146  .00004940  00000+0  23744-3 0  9990
2 44804  97.4308 220.4987 0012208 180.3117 179.8112 15.19215601361997
GAOFEN-12 01            
1 44819U 19082A   26158.54979791  .00000479  00000+0  69305-4 0  9995
2 44819  97.8101 165.1837 0002485  81.5486 278.6008 14.80450969352665
CSG-1                   
1 44873U 19092A   26158.53235672  .00000540  00000+0  74440-4 0  9993
2 44873  97.8888 342.2749 0001452  90.6979 269.4401 14.82157259350041
NEMO-HD                 
1 46277U 20061F   26158.47628176  .00011033  00000+0  24063-3 0  9993
2 46277  97.1920 220.5285 0002633  91.2314 268.9237 15.44397802320481
SENTINEL-6A             
1 46984U 20086A   26158.24791575 -.00000038  00000+0  99250-4 0  9999
2 46984  66.0384 155.6964 0007954 270.2907  89.7197 12.80929730259051
CAS500-1                
1 47932U 21022A   26158.51851887  .00007358  00000+0  34237-3 0  9991
2 47932  97.3907  53.9668 0004242 340.7273  19.3801 15.20222823289296
GAOFEN-12 02            
1 48079U 21026A   26158.55982671  .00000453  00000+0  66368-4 0  9998
2 48079  97.9920 156.7800 0003320 264.7374  95.3458 14.80289047280337
PLEIADES NEO 3          
1 48268U 21034A   26158.52846991 -.00001401  00000+0 -17150-3 0  9998
2 48268  97.8932 233.4333 0001379  78.9254 281.2114 14.81665694276222
PLEIADES NEO 4          
1 49070U 21073E   26158.69730778  .00001152  00000+0  15304-3 0  9996
2 49070  97.8938 233.5966 0001356  93.5777 266.5591 14.81663180259966
LANDSAT 9               
1 49260U 21088A   26158.44537294  .00000410  00000+0  10108-3 0  9997
2 49260  98.2277 228.7402 0001443  88.5920 271.5444 14.57104365249588
CSG-2                   
1 51444U 22008A   26157.35089398  .00000865  00000+0  11522-3 0  9998
2 51444  97.8885 341.1056 0001500  82.8328 277.3056 14.82168009234987
GAOFEN-12 03            
1 52912U 22069A   26158.52038549  .00001272  00000+0  17479-3 0  9998
2 52912  97.8287  46.6337 0001645 111.2167 248.9221 14.80020314213182
SWOT                    
1 54754U 22173A   26158.41337435 -.00000010  00000+0 -49540-5 0  9991
2 54754  77.6112  48.5044 0000192  96.2586 263.8588 14.00168362177785
GAOFEN-12 04            
1 57654U 23123A   26158.53833509  .00001199  00000+0  16457-3 0  9991
2 57654  97.9129  76.6946 0001787  87.3750 272.7667 14.80210906151204
PARS 1                  
1 59065U 24039Q   26158.53864733  .00011158  00000+0  23387-3 0  9995
2 59065  97.4823 139.1563 0010845 140.5898 219.6142 15.45525723127151
RESURS-P 4              
1 59371U 24061A   26158.53167252  .00003557  00000+0  11734-3 0  9999
2 59371  97.2747 106.5991 0001441 132.0912 228.0452 15.32076551122285
LEGION 1                
1 59625U 24081A   26158.46235972  .00004027  00000+0  20935-3 0  9996
2 59625  97.5013 236.4236 0010409  49.2916 310.9220 15.16600209116066
LEGION 2                
1 59626U 24081B   26158.49221174  .00004645  00000+0  24097-3 0  9998
2 59626  97.5014 236.5510 0011719  17.9455 342.2189 15.16580245116079
ALOS-4 (DAICHI-4)       
1 60182U 24123A   26157.81067848  .00001689  00000+0  23294-3 0  9998
2 60182  97.9239 255.1300 0001681  98.6257 261.5145 14.79475508104343
LEGION 3                
1 60452U 24146A   26158.24679537  .00004803  00000+0  25943-3 0  9999
2 60452  45.0007  83.8639 0006841 106.8393 253.3237 15.15961832100514
LEGION 4                
1 60453U 24146B   26158.44752046  .00004019  00000+0  21901-3 0  9998
2 60453  45.0000 174.6985 0014032 257.8197 102.1110 15.15964690 99390
SENTINEL-2C             
1 60989U 24157A   26158.45225801  .00000127  00000+0  65218-4 0  9995
2 60989  98.5693 233.3717 0001188  79.0873 281.0444 14.30815284 91595
IONOSFERA-M 1           
1 61735U 24199A   26158.34815543  .00000059  00000+0  45762-4 0  9993
2 61735  98.7185  31.6237 0001653 123.6460 236.4876 14.22752541126302
IONOSFERA-M 2           
1 61736U 24199B   26158.38247477  .00000057  00000+0  44921-4 0  9997
2 61736  98.7184  31.5684 0001427  47.7010 312.4289 14.22755718129432
PRSC-EO1                
1 62725U 25012A   26158.49965810  .00007492  00000+0  37533-3 0  9991
2 62725  97.4221 231.1487 0004256 297.0121  63.0678 15.17646661 76729
BIOMASS                 
1 63772U 25090A   26158.28342458  .00000891  00000+0  16563-3 0  9990
2 63772  98.0743 345.7442 0001362  89.8190 270.3171 14.67533860 59237
GOSAT-GW (IBUKI GW)     
1 64694U 25141A   26158.50837734  .00000869  00000+0  16167-3 0  9997
2 64694  98.0572  95.9829 0001432  84.1136 276.0232 14.67554545 50426
IONOSFERA-M 3           
1 64876U 25155A   26158.53216909  .00000073  00000+0  53073-4 0  9997
2 64876  98.6026 120.6805 0000438 177.8008 182.3172 14.21484893 45032
