OBJECT_NAME,OBJECT_ID,EPOCH,MEAN_MOTION,ECCENTRICITY,INCLINATION,RA_OF_ASC_NODE,ARG_OF_PERICENTER,MEAN_ANOMALY,EPHEMERIS_TYPE,CLASSIFICATION_TYPE,NORAD_CAT_ID,ELEMENT_SET_NO,REV_AT_EPOCH,BSTAR,MEAN_MOTION_DOT,MEAN_MOTION_DDOT
SAUDISAT 5A,2018-102A,2026-06-07T12:54:58.785696,15.27948528,.0010293,97.3069,220.3055,159.3548,200.8110,0,U,43831,999,41420,.22766E-3,.6145E-4,0
SAUDISAT 5B,2018-102C,2026-06-07T11:50:11.064768,15.28209766,.0010902,97.3176,223.3136,162.2708,197.8915,0,U,43833,999,41431,.20854E-3,.5668E-4,0
GAOFEN-10R,2019-066A,2026-06-07T12:08:07.300320,14.83040213,.000599,98.0498,112.0147,154.6299,205.5209,0,U,44622,999,36094,.17538E-3,.1372E-4,0
CARTOSAT-3,2019-081A,2026-06-07T11:24:26.046144,15.19215601,.0012208,97.4308,220.4987,180.3117,179.8112,0,U,44804,999,36199,.23744E-3,.494E-4,0
GAOFEN-12 01,2019-082A,2026-06-07T13:11:42.539424,14.80450969,.0002485,97.8101,165.1837,81.5486,278.6008,0,U,44819,999,35266,.69305E-4,.479E-5,0
CSG-1,2019-092A,2026-06-07T12:46:35.620608,14.82157259,.0001452,97.8888,342.2749,90.6979,269.4401,0,U,44873,999,35004,.7444E-4,.54E-5,0
NEMO-HD,2020-061F,2026-06-07T11:25:50.744064,15.44397802,.0002633,97.1920,220.5285,91.2314,268.9237,0,U,46277,999,32048,.24063E-3,.11033E-3,0
SENTINEL-6A,2020-086A,2026-06-07T05:56:59.920800,12.80929730,.0007954,66.0384,155.6964,270.2907,89.7197,0,U,46984,999,25905,.9925E-4,-.38E-6,0
CAS500-1,2021-022A,2026-06-07T12:26:40.030368,15.20222823,.0004242,97.3907,53.9668,340.7273,19.3801,0,U,47932,999,28929,.34237E-3,.7358E-4,0
GAOFEN-12 02,2021-026A,2026-06-07T13:26:09.027744,14.80289047,.000332,97.9920,156.7800,264.7374,95.3458,0,U,48079,999,28033,.66368E-4,.453E-5,0
PLEIADES NEO 3,2021-034A,2026-06-07T12:40:59.800224,14.81665694,.0001379,97.8932,233.4333,78.9254,281.2114,0,U,48268,999,27622,-.1715E-3,-.1401E-4,0
PLEIADES NEO 4,2021-073E,2026-06-07T16:44:07.392192,14.81663180,.0001356,97.8938,233.5966,93.5777,266.5591,0,U,49070,999,25996,.15304E-3,.1152E-4,0
LANDSAT 9,2021-088A,2026-06-07T10:41:20.222016,14.57104365,.0001443,98.2277,228.7402,88.5920,271.5444,0,U,49260,999,24958,.10108E-3,.41E-5,0
CSG-2,2022-008A,2026-06-06T08:25:17.239872,14.82168009,.00015003,97.8885,341.1056,82.8328,277.3056,0,U,51444,999,23498,.11521837E-3,.865E-5,0
GAOFEN-12 03,2022-069A,2026-06-07T12:29:21.306336,14.80020314,.0001645,97.8287,46.6337,111.2167,248.9221,0,U,52912,999,21318,.17479E-3,.1272E-4,0
SWOT,2022-173A,2026-06-07T09:55:15.543840,14.00168362,.0000192,77.6112,48.5044,96.2586,263.8588,0,U,54754,999,17778,-.4954E-5,-.1E-6,0
GAOFEN-12 04,2023-123A,2026-06-07T12:55:12.151776,14.80210906,.0001787,97.9129,76.6946,87.3750,272.7667,0,U,57654,999,15120,.16457E-3,.1199E-4,0
PARS 1,2024-039Q,2026-06-07T12:55:39.129312,15.45525723,.0010845,97.4823,139.1563,140.5898,219.6142,0,U,59065,999,12715,.23387E-3,.11158E-3,0
RESURS-P 4,2024-061A,2026-06-07T12:45:36.505728,15.32076551,.0001441,97.2747,106.5991,132.0912,228.0452,0,U,59371,999,12228,.11734E-3,.3557E-4,0
LEGION 1,2024-081A,2026-06-07T11:05:47.879808,15.16600209,.0010409,97.5013,236.4236,49.2916,310.9220,0,U,59625,999,11606,.20935E-3,.4027E-4,0
LEGION 2,2024-081B,2026-06-07T11:48:47.094336,15.16580245,.0011719,97.5014,236.5510,17.9455,342.2189,0,U,59626,999,11607,.24097E-3,.4645E-4,0
ALOS-4 (DAICHI-4),2024-123A,2026-06-06T19:27:22.620672,14.79475508,.00016816,97.9239,255.1300,98.6257,261.5145,0,U,60182,999,10434,.23293895E-3,.1689E-4,0
LEGION 3,2024-146A,2026-06-07T05:55:23.119968,15.15961832,.0006841,45.0007,83.8639,106.8393,253.3237,0,U,60452,999,10051,.25943E-3,.4803E-4,0
LEGION 4,2024-146B,2026-06-07T10:44:25.767744,15.15964690,.0014032,45.0000,174.6985,257.8197,102.1110,0,U,60453,999,9939,.21901E-3,.4019E-4,0
SENTINEL-2C,2024-157A,2026-06-07T10:51:15.092064,14.30815284,.0001188,98.5693,233.3717,79.0873,281.0444,0,U,60989,999,9159,.65218E-4,.127E-5,0
IONOSFERA-M 1,2024-199A,2026-06-07T08:21:20.629152,14.22752541,.0001653,98.7185,31.6237,123.6460,236.4876,0,U,61735,999,12630,.45762E-4,.59E-6,0
IONOSFERA-M 2,2024-199B,2026-06-07T09:10:45.820128,14.22755718,.0001427,98.7184,31.5684,47.7010,312.4289,0,U,61736,999,12943,.44921E-4,.57E-6,0
PRSC-EO1,2025-012A,2026-06-07T11:59:30.459840,15.17646661,.0004256,97.4221,231.1487,297.0121,63.0678,0,U,62725,999,7672,.37533E-3,.7492E-4,0
BIOMASS,2025-090A,2026-06-07T06:48:07.883712,14.67533860,.0001362,98.0743,345.7442,89.8190,270.3171,0,U,63772,999,5923,.16563E-3,.891E-5,0
GOSAT-GW (IBUKI GW),2025-141A,2026-06-07T12:12:03.802176,14.67554545,.0001432,98.0572,95.9829,84.1136,276.0232,0,U,64694,999,5042,.16167E-3,.869E-5,0
IONOSFERA-M 3,2025-155A,2026-06-07T12:46:19.409376,14.21484893,.0000438,98.6026,120.6805,177.8008,182.3172,0,U,64876,999,4503,.53073E-4,.73E-6,0
